{"type": "FeatureCollection", "features": [ {"type": "Feature", "properties": {"norad_id": 33153, "name": "INTELSAT 25 (IS-25)", "group": "intelsat", "lat": 2.1112790742496244, "lon": -171.76287439689997, "alt_km": 35779.368209955624, "timestamp": "2025-12-05T09:41:18.789435+00:00", "meta": {"OBJECT_NAME": "INTELSAT 25 (IS-25)", "OBJECT_ID": "2008-034A", "EPOCH": "2025-12-04T11:51:49.343904", "MEAN_MOTION": 1.0027113, "ECCENTRICITY": 0.0005398, "INCLINATION": 2.205, "RA_OF_ASC_NODE": 82.7411, "ARG_OF_PERICENTER": 178.5676, "MEAN_ANOMALY": 318.723, "EPHEMERIS_TYPE": 0, "CLASSIFICATION_TYPE": "U", "NORAD_CAT_ID": 33153, "ELEMENT_SET_NO": 999, "REV_AT_EPOCH": 6374, "BSTAR": 0, "MEAN_MOTION_DOT": -2.1e-06, "MEAN_MOTION_DDOT": 0}, "tle": {"line1": "1 33153U 08034A   25338.49432111 -.00000210  00000+0  00000+0 0  9998", "line2": "2 33153   2.2050  82.7411 0005398 178.5676 318.7230  1.00271130 63743"}}, "geometry": {"type": "Point", "coordinates": [-171.76287439689997, 2.1112790742496244]}}, {"type": "Feature", "properties": {"norad_id": 33376, "name": "GALAXY 19 (G-19)", "group": "intelsat", "lat": 0.026122887879733433, "lon": 122.75218621565055, "alt_km": 35797.43723560427, "timestamp": "2025-12-05T09:41:18.789448+00:00", "meta": {"OBJECT_NAME": "GALAXY 19 (G-19)", "OBJECT_ID": "2008-045A", "EPOCH": "2025-12-04T13:15:52.264800", "MEAN_MOTION": 1.00270748, "ECCENTRICITY": 0.0003382, "INCLINATION": 0.015, "RA_OF_ASC_NODE": 20.2783, "ARG_OF_PERICENTER": 242.9644, "MEAN_ANOMALY": 272.3552, "EPHEMERIS_TYPE": 0, "CLASSIFICATION_TYPE": "U", "NORAD_CAT_ID": 33376, "ELEMENT_SET_NO": 999, "REV_AT_EPOCH": 6295, "BSTAR": 0, "MEAN_MOTION_DOT": -1.25e-06, "MEAN_MOTION_DDOT": 0}, "tle": {"line1": "1 33376U 08045A   25338.55268825 -.00000125  00000+0  00000+0 0  9998", "line2": "2 33376   0.0150  20.2783 0003382 242.9644 272.3552  1.00270748 62956"}}, "geometry": {"type": "Point", "coordinates": [122.75218621565055, 0.026122887879733433]}}, {"type": "Feature", "properties": {"norad_id": 35493, "name": "FM-5", "group": "intelsat", "lat": -0.005613544562645138, "lon": 133.59392887592628, "alt_km": 35785.553768098136, "timestamp": "2025-12-05T09:41:18.789460+00:00", "meta": {"OBJECT_NAME": "FM-5", "OBJECT_ID": "2009-034A", "EPOCH": "2025-12-04T13:18:59.465952", "MEAN_MOTION": 1.00264686, "ECCENTRICITY": 7.53e-05, "INCLINATION": 0.0188, "RA_OF_ASC_NODE": 288.8393, "ARG_OF_PERICENTER": 240.0351, "MEAN_ANOMALY": 18.3463, "EPHEMERIS_TYPE": 0, "CLASSIFICATION_TYPE": "U", "NORAD_CAT_ID": 35493, "ELEMENT_SET_NO": 999, "REV_AT_EPOCH": 4469, "BSTAR": 0, "MEAN_MOTION_DOT": -1.85e-06, "MEAN_MOTION_DDOT": 0}, "tle": {"line1": "1 35493U 09034A   25338.55485493 -.00000185  00000+0  00000+0 0  9997", "line2": "2 35493   0.0188 288.8393 0000753 240.0351  18.3463  1.00264686 44695"}}, "geometry": {"type": "Point", "coordinates": [133.59392887592628, -0.005613544562645138]}}, {"type": "Feature", "properties": {"norad_id": 36097, "name": "INTELSAT 14 (IS-14)", "group": "intelsat", "lat": -0.021936663187037398, "lon": 174.74761362767612, "alt_km": 35784.62503529564, "timestamp": "2025-12-05T09:41:18.789472+00:00", "meta": {"OBJECT_NAME": "INTELSAT 14 (IS-14)", "OBJECT_ID": "2009-064A", "EPOCH": "2025-12-04T10:05:14.586144", "MEAN_MOTION": 1.00271085, "ECCENTRICITY": 0.0002688, "INCLINATION": 0.0131, "RA_OF_ASC_NODE": 311.6837, "ARG_OF_PERICENTER": 304.2018, "MEAN_ANOMALY": 283.926, "EPHEMERIS_TYPE": 0, "CLASSIFICATION_TYPE": "U", "NORAD_CAT_ID": 36097, "ELEMENT_SET_NO": 999, "REV_AT_EPOCH": 5865, "BSTAR": 0, "MEAN_MOTION_DOT": -2.58e-06, "MEAN_MOTION_DDOT": 0}, "tle": {"line1": "1 36097U 09064A   25338.42030771 -.00000258  00000+0  00000+0 0  9993", "line2": "2 36097   0.0131 311.6837 0002688 304.2018 283.9260  1.00271085 58651"}}, "geometry": {"type": "Point", "coordinates": [174.74761362767612, -0.021936663187037398]}}, {"type": "Feature", "properties": {"norad_id": 36106, "name": "INTELSAT 15 (IS-15)", "group": "intelsat", "lat": -0.005454170665437445, "lon": -55.04958772916918, "alt_km": 35779.85529254646, "timestamp": "2025-12-05T09:41:18.789485+00:00", "meta": {"OBJECT_NAME": "INTELSAT 15 (IS-15)", "OBJECT_ID": "2009-067A", "EPOCH": "2025-12-04T12:25:12.120096", "MEAN_MOTION": 1.00270193, "ECCENTRICITY": 0.0002481, "INCLINATION": 0.0067, "RA_OF_ASC_NODE": 304.2983, "ARG_OF_PERICENTER": 310.3847, "MEAN_ANOMALY": 90.3665, "EPHEMERIS_TYPE": 0, "CLASSIFICATION_TYPE": "U", "NORAD_CAT_ID": 36106, "ELEMENT_SET_NO": 999, "REV_AT_EPOCH": 3927, "BSTAR": 0, "MEAN_MOTION_DOT": -1.7e-06, "MEAN_MOTION_DDOT": 0}, "tle": {"line1": "1 36106U 09067A   25338.51750139 -.00000170  00000+0  00000+0 0  9997", "line2": "2 36106   0.0067 304.2983 0002481 310.3847  90.3665  1.00270193 39274"}}, "geometry": {"type": "Point", "coordinates": [-55.04958772916918, -0.005454170665437445]}}, {"type": "Feature", "properties": {"norad_id": 36131, "name": "DIRECTV 12", "group": "intelsat", "lat": 0.0009534507659339138, "lon": 117.0440639458594, "alt_km": 35787.21485688264, "timestamp": "2025-12-05T09:41:18.789497+00:00", "meta": {"OBJECT_NAME": "DIRECTV 12", "OBJECT_ID": "2009-075A", "EPOCH": "2025-12-04T13:14:14.921376", "MEAN_MOTION": 1.00268273, "ECCENTRICITY": 8.1e-06, "INCLINATION": 0.0128, "RA_OF_ASC_NODE": 87.602, "ARG_OF_PERICENTER": 275.1839, "MEAN_ANOMALY": 166.679, "EPHEMERIS_TYPE": 0, "CLASSIFICATION_TYPE": "U", "NORAD_CAT_ID": 36131, "ELEMENT_SET_NO": 999, "REV_AT_EPOCH": 4460, "BSTAR": 0, "MEAN_MOTION_DOT": -8.8e-07, "MEAN_MOTION_DDOT": 0}, "tle": {"line1": "1 36131U 09075A   25338.55156159 -.00000088  00000+0  00000+0 0  9998", "line2": "2 36131   0.0128  87.6020 0000081 275.1839 166.6790  1.00268273 44602"}}, "geometry": {"type": "Point", "coordinates": [117.0440639458594, 0.0009534507659339138]}}, {"type": "Feature", "properties": {"norad_id": 36397, "name": "INTELSAT 16 (IS-16)", "group": "intelsat", "lat": 0.0006618295128095964, "lon": 143.5481641813011, "alt_km": 35789.776933825204, "timestamp": "2025-12-05T09:41:18.789509+00:00", "meta": {"OBJECT_NAME": "INTELSAT 16 (IS-16)", "OBJECT_ID": "2010-006A", "EPOCH": "2025-12-04T11:39:05.593824", "MEAN_MOTION": 1.00271458, "ECCENTRICITY": 0.0002334, "INCLINATION": 0.0096, "RA_OF_ASC_NODE": 322.0431, "ARG_OF_PERICENTER": 292.3542, "MEAN_ANOMALY": 277.7345, "EPHEMERIS_TYPE": 0, "CLASSIFICATION_TYPE": "U", "NORAD_CAT_ID": 36397, "ELEMENT_SET_NO": 999, "REV_AT_EPOCH": 5770, "BSTAR": 0, "MEAN_MOTION_DOT": -2.3e-06, "MEAN_MOTION_DDOT": 0}, "tle": {"line1": "1 36397U 10006A   25338.48548141 -.00000230  00000+0  00000+0 0  9995", "line2": "2 36397   0.0096 322.0431 0002334 292.3542 277.7345  1.00271458 57701"}}, "geometry": {"type": "Point", "coordinates": [143.5481641813011, 0.0006618295128095964]}}, {"type": "Feature", "properties": {"norad_id": 37185, "name": "XM-5", "group": "intelsat", "lat": 0.003306837883349365, "lon": 104.57529423231216, "alt_km": 35782.62788044929, "timestamp": "2025-12-05T09:41:18.789521+00:00", "meta": {"OBJECT_NAME": "XM-5", "OBJECT_ID": "2010-053A", "EPOCH": "2025-12-04T11:27:59.156928", "MEAN_MOTION": 1.0027279, "ECCENTRICITY": 0.0001333, "INCLINATION": 0.0598, "RA_OF_ASC_NODE": 273.2827, "ARG_OF_PERICENTER": 247.1051, "MEAN_ANOMALY": 329.9691, "EPHEMERIS_TYPE": 0, "CLASSIFICATION_TYPE": "U", "NORAD_CAT_ID": 37185, "ELEMENT_SET_NO": 999, "REV_AT_EPOCH": 5553, "BSTAR": 0, "MEAN_MOTION_DOT": -8e-08, "MEAN_MOTION_DDOT": 0}, "tle": {"line1": "1 37185U 10053A   25338.47776802 -.00000008  00000+0  00000+0 0  9992", "line2": "2 37185   0.0598 273.2827 0001333 247.1051 329.9691  1.00272790 55534"}}, "geometry": {"type": "Point", "coordinates": [104.57529423231216, 0.003306837883349365]}}, {"type": "Feature", "properties": {"norad_id": 37238, "name": "INTELSAT 17 (IS-17)", "group": "intelsat", "lat": -0.011551489368473316, "lon": -74.21435637661327, "alt_km": 35777.82549247244, "timestamp": "2025-12-05T09:41:18.789533+00:00", "meta": {"OBJECT_NAME": "INTELSAT 17 (IS-17)", "OBJECT_ID": "2010-065B", "EPOCH": "2025-12-04T14:02:25.306368", "MEAN_MOTION": 1.00271299, "ECCENTRICITY": 0.0002391, "INCLINATION": 0.013, "RA_OF_ASC_NODE": 289.3203, "ARG_OF_PERICENTER": 321.9563, "MEAN_ANOMALY": 98.9819, "EPHEMERIS_TYPE": 0, "CLASSIFICATION_TYPE": "U", "NORAD_CAT_ID": 37238, "ELEMENT_SET_NO": 999, "REV_AT_EPOCH": 5129, "BSTAR": 0, "MEAN_MOTION_DOT": 1.3e-07, "MEAN_MOTION_DDOT": 0}, "tle": {"line1": "1 37238U 10065B   25338.58501512  .00000013  00000+0  00000+0 0  9995", "line2": "2 37238   0.0130 289.3203 0002391 321.9563  98.9819  1.00271299 51292"}}, "geometry": {"type": "Point", "coordinates": [-74.21435637661327, -0.011551489368473316]}}, {"type": "Feature", "properties": {"norad_id": 37392, "name": "INTELSAT 28 (IS-28)", "group": "intelsat", "lat": 1.2547123035478542, "lon": -171.9719535998259, "alt_km": 35780.519353053794, "timestamp": "2025-12-05T09:41:18.789545+00:00", "meta": {"OBJECT_NAME": "INTELSAT 28 (IS-28)", "OBJECT_ID": "2011-016A", "EPOCH": "2025-12-04T10:09:06.715296", "MEAN_MOTION": 1.00271009, "ECCENTRICITY": 0.0004125, "INCLINATION": 1.3016, "RA_OF_ASC_NODE": 85.1558, "ARG_OF_PERICENTER": 173.9289, "MEAN_ANOMALY": 294.9856, "EPHEMERIS_TYPE": 0, "CLASSIFICATION_TYPE": "U", "NORAD_CAT_ID": 37392, "ELEMENT_SET_NO": 999, "REV_AT_EPOCH": 5133, "BSTAR": 0, "MEAN_MOTION_DOT": -2.1e-06, "MEAN_MOTION_DDOT": 0}, "tle": {"line1": "1 37392U 11016A   25338.42299439 -.00000210  00000+0  00000+0 0  9998", "line2": "2 37392   1.3016  85.1558 0004125 173.9289 294.9856  1.00271009 51335"}}, "geometry": {"type": "Point", "coordinates": [-171.9719535998259, 1.2547123035478542]}}]}